NORAD_CAT_ID,OBJECT_NAME,OBJECT_TYPE,EPOCH,MEAN_MOTION,ECCENTRICITY,INCLINATION,RA_OF_ASC_NODE,ARG_OF_PERICENTER,MEAN_ANOMALY,BSTAR,MEAN_MOTION_DOT,MEAN_MOTION_DDOT,TLE_LINE0,TLE_LINE1,TLE_LINE2,SEMIMAJOR_AXIS,PERIOD,APOGEE,PERIGEE,DECAYED
51897.0,STARLINK-3598,PAYLOAD,2024-08-10 20:07:02,15.08839407,0.0001372,53.2172,64.2172,87.6382,272.4767,6.2955e-05,7.14e-06,0.0,0 STARLINK-3598,1 51897U 22022AX  24223.83822501  .00000714  00000-0  62955-4 0  9993,2 51897  53.2172  64.2172 0001372  87.6382 272.4767 15.08839407136315,6917.882,95.438,540.696,538.798,0.0
51897.0,STARLINK-3598,PAYLOAD,2024-08-11 19:57:50,15.08838288,0.000127,53.2176,59.7649,75.6747,284.4386,0.0002526,3.734e-05,0.0,0 STARLINK-3598,1 51897U 22022AX  24224.83182899  .00003734  00000-0  25260-3 0  9995,2 51897  53.2176  59.7649 0001270  75.6747 284.4386 15.08838288136468,6917.886,95.438,540.629,538.872,0.0
51897.0,STARLINK-3598,PAYLOAD,2024-08-12 13:27:04,15.08838485,0.0001663,53.2185,56.4886,97.9988,262.1193,4.5376e-05,4.34e-06,0.0,0 STARLINK-3598,1 51897U 22022AX  24225.56046627  .00000434  00000-0  45376-4 0  9999,2 51897  53.2185  56.4886 0001663  97.9988 262.1193 15.08838485136575,6917.885,95.438,540.9,538.6,0.0
51897.0,STARLINK-3598,PAYLOAD,2024-08-13 05:20:53,15.08869111,6.96e-05,53.2178,53.5117,76.9286,283.1784,0.00050723,7.8e-05,0.0,0 STARLINK-3598,1 51897U 22022AX  24226.22284675  .00007800  00000-0  50723-3 0  9995,2 51897  53.2178  53.5117 0000696  76.9286 283.1784 15.08869111136675,6917.791,95.436,540.138,539.175,0.0
51897.0,STARLINK-3598,PAYLOAD,2024-08-13 13:17:52,15.08787771,0.0002588,53.2218,52.0314,106.3856,253.7421,-0.0013133,-0.000211,0.0,0 STARLINK-3598,1 51897U 22022AX  24226.55407615 -.00021100  00000-0 -13133-2 0  9996,2 51897  53.2218  52.0314 0002588 106.3856 253.7421 15.08787771136724,6918.04,95.441,541.695,538.115,0.0
51897.0,STARLINK-3598,PAYLOAD,2024-08-13 19:39:25,15.08791303,0.0001594,53.2188,50.8412,95.6665,264.4509,-0.00087043,-0.00014096,0.0,0 STARLINK-3598,1 51897U 22022AX  24226.81904575 -.00014096  00000-0 -87043-3 0  9990,2 51897  53.2188  50.8412 0001594  95.6665 264.4509 15.08791303136765,6918.029,95.441,540.997,538.792,0.0
51897.0,STARLINK-3598,PAYLOAD,2024-08-14 05:11:45,15.08802592,0.0003704,53.2208,49.055,91.6913,268.4503,-0.00035358,-5.907e-05,0.0,0 STARLINK-3598,1 51897U 22022AX  24227.21649705 -.00005907  00000-0 -35358-3 0  9999,2 51897  53.2208  49.0550 0003704  91.6913 268.4503 15.08802592136826,6917.995,95.44,542.422,537.297,0.0
51897.0,STARLINK-3598,PAYLOAD,2024-08-14 19:30:12,15.088434,0.0001122,53.2148,46.3787,92.1562,267.9558,0.00092184,0.00014415,0.0,0 STARLINK-3598,1 51897U 22022AX  24227.81264750  .00014415  00000-0  92184-3 0  9990,2 51897  53.2148  46.3787 0001122  92.1562 267.9558 15.08843400136916,6917.87,95.437,540.511,538.959,0.0
51897.0,STARLINK-3598,PAYLOAD,2024-08-15 19:20:58,15.08868962,0.0001264,53.2152,41.9164,89.598,270.5157,0.00066406,0.00010305,0.0,0 STARLINK-3598,1 51897U 22022AX  24228.80623605  .00010305  00000-0  66406-3 0  9990,2 51897  53.2152  41.9164 0001264  89.5980 270.5157 15.08868962137064,6917.792,95.436,540.531,538.782,0.0
51897.0,STARLINK-3598,PAYLOAD,2024-08-16 04:53:17,15.08869527,0.0001308,53.2154,40.1328,89.9308,270.1834,0.00059035,9.127e-05,0.0,0 STARLINK-3598,1 51897U 22022AX  24229.20367051  .00009127  00000-0  59035-3 0  9995,2 51897  53.2154  40.1328 0001308  89.9308 270.1834 15.08869527137129,6917.79,95.436,540.56,538.75,0.0
51897.0,STARLINK-3598,PAYLOAD,2024-08-17 20:37:55,15.08853895,7.83e-05,53.219,32.6965,113.7886,246.3189,0.00069967,0.00010869,0.0,0 STARLINK-3598,1 51897U 22022AX  24230.85966960  .00010869  00000-0  69967-3 0  9992,2 51897  53.2190  32.6965 0000783 113.7886 246.3189 15.08853895137371,6917.838,95.437,540.245,539.161,0.0
51897.0,STARLINK-3598,PAYLOAD,2024-08-18 01:24:04,15.08857447,0.0001062,53.2184,31.805,105.3925,254.7184,0.00019549,2.826e-05,0.0,0 STARLINK-3598,1 51897U 22022AX  24231.05838400  .00002826  00000-0  19549-3 0  9997,2 51897  53.2184  31.8050 0001062 105.3925 254.7184 15.08857447137401,6917.827,95.436,540.427,538.957,0.0
51897.0,STARLINK-3598,PAYLOAD,2024-08-18 10:56:23,15.08839732,0.0001149,53.2183,30.0221,97.509,262.6032,0.0001092,1.451e-05,0.0,0 STARLINK-3598,1 51897U 22022AX  24231.45583278  .00001451  00000-0  10920-3 0  9998,2 51897  53.2183  30.0221 0001149  97.5090 262.6032 15.08839732137465,6917.881,95.438,540.541,538.951,0.0
51897.0,STARLINK-3598,PAYLOAD,2024-08-18 20:28:42,15.08848442,0.000118,53.2178,28.2372,99.4733,260.6392,0.00023101,3.391e-05,0.0,0 STARLINK-3598,1 51897U 22022AX  24231.85326902  .00003391  00000-0  23101-3 0  9991,2 51897  53.2178  28.2372 0001180  99.4733 260.6392 15.08848442137527,6917.855,95.437,540.536,538.903,0.0
51897.0,STARLINK-3598,PAYLOAD,2024-08-19 10:47:10,15.08839369,0.0001221,53.2177,25.5597,105.4607,254.652,2.6762e-05,1.38e-06,0.0,0 STARLINK-3598,1 51897U 22022AX  24232.44943207  .00000138  00000-0  26762-4 0  9993,2 51897  53.2177  25.5597 0001221 105.4607 254.6520 15.08839369137613,6917.882,95.438,540.592,538.903,0.0
51897.0,STARLINK-3598,PAYLOAD,2024-08-20 02:41:02,15.08832957,0.000111,53.2175,22.5861,100.7946,259.3171,0.00030747,4.608e-05,0.0,0 STARLINK-3598,1 51897U 22022AX  24233.11183755  .00004608  00000-0  30747-3 0  9995,2 51897  53.2175  22.5861 0001110 100.7946 259.3171 15.08832957137714,6917.902,95.438,540.535,538.999,0.0
51897.0,STARLINK-3598,PAYLOAD,2024-08-20 13:48:44,15.08837235,0.000156,53.2183,20.5063,100.7613,259.3555,6.3685e-05,7.26e-06,0.0,0 STARLINK-3598,1 51897U 22022AX  24233.57551689  .00000726  00000-0  63685-4 0  9995,2 51897  53.2183  20.5063 0001560 100.7613 259.3555 15.08837235137782,6917.889,95.438,540.833,538.675,0.0
51897.0,STARLINK-3598,PAYLOAD,2024-08-21 13:39:32,15.08832228,0.0001473,53.2178,16.0437,98.2831,261.8329,3.5612e-05,2.79e-06,0.0,0 STARLINK-3598,1 51897U 22022AX  24234.56912168  .00000279  00000-0  35612-4 0  9990,2 51897  53.2178  16.0437 0001473  98.2831 261.8329 15.08832228137938,6917.904,95.438,540.788,538.75,0.0
51897.0,STARLINK-3598,PAYLOAD,2024-08-21 15:14:55,15.08832022,0.0001287,53.2185,15.747,93.8498,266.2641,5.2274e-05,5.44e-06,0.0,0 STARLINK-3598,1 51897U 22022AX  24234.63536525  .00000544  00000-0  52274-4 0  9995,2 51897  53.2185  15.7470 0001287  93.8498 266.2641 15.08832022137941,6917.905,95.438,540.66,538.879,0.0
51897.0,STARLINK-3598,PAYLOAD,2024-08-21 16:50:18,15.08832053,0.0001231,53.2179,15.4497,88.0245,272.0888,5.0349e-05,5.13e-06,0.0,0 STARLINK-3598,1 51897U 22022AX  24234.70160546  .00000513  00000-0  50349-4 0  9996,2 51897  53.2179  15.4497 0001231  88.0245 272.0888 15.08832053137958,6917.905,95.438,540.621,538.918,0.0
